{
  "type": "FeatureCollection",
  "features": [
    {
      "type": "Feature",
      "properties": {
        "norad_id": 44333,
        "name": "AT&T T-16",
        "group": "intelsat",
        "lat": 0.03778744473844384,
        "lon": 140.49632966126586,
        "alt_km": 35784.19665543237,
        "timestamp": "2025-12-25T09:48:51.954120+00:00",
        "meta_object_name": "AT&T T-16",
        "meta_object_id": "2019-034A",
        "meta_epoch": "2025-12-23T22:55:25.672800",
        "meta_mean_motion": 1.00268558,
        "meta_eccentricity": 6.686e-05,
        "meta_inclination": 0.0228,
        "meta_ra_of_asc_node": 67.9518,
        "meta_arg_of_pericenter": 76.4171,
        "meta_mean_anomaly": 191.3588,
        "meta_ephemeris_type": 0,
        "meta_classification_type": "U",
        "meta_norad_cat_id": 44333,
        "meta_element_set_no": 999,
        "meta_rev_at_epoch": 2387,
        "meta_bstar": 0,
        "meta_mean_motion_dot": -9.4e-07,
        "meta_mean_motion_ddot": 0,
        "tle_line1": "1 44333U 19034A   25357.95515825 -.00000094  00000+0  00000+0 0  9998",
        "tle_line2": "2 44333   0.0228  67.9518 0000668  76.4171 191.3588  1.00268558 23873"
      },
      "geometry": {
        "type": "Point",
        "coordinates": [
          140.49632966126586,
          0.03778744473844384
        ]
      }
    },
    {
      "type": "Feature",
      "properties": {
        "norad_id": 44476,
        "name": "INTELSAT 39 (IS-39)",
        "group": "intelsat",
        "lat": -0.0394756389482799,
        "lon": -56.67895309998171,
        "alt_km": 35787.32605085307,
        "timestamp": "2025-12-25T09:48:51.954132+00:00",
        "meta_object_name": "INTELSAT 39 (IS-39)",
        "meta_object_id": "2019-049B",
        "meta_epoch": "2025-12-24T23:39:55.356768",
        "meta_mean_motion": 1.0027611,
        "meta_eccentricity": 6.2e-05,
        "meta_inclination": 0.0209,
        "meta_ra_of_asc_node": 14.9454,
        "meta_arg_of_pericenter": 127.1893,
        "meta_mean_anomaly": 8.5314,
        "meta_ephemeris_type": 0,
        "meta_classification_type": "U",
        "meta_norad_cat_id": 44476,
        "meta_element_set_no": 999,
        "meta_rev_at_epoch": 2338,
        "meta_bstar": 0,
        "meta_mean_motion_dot": 0,
        "meta_mean_motion_ddot": 0,
        "tle_line1": "1 44476U 19049B   25358.98605737  .00000000  00000+0  00000+0 0  9994",
        "tle_line2": "2 44476   0.0209  14.9454 0000620 127.1893   8.5314  1.00276110 23389"
      },
      "geometry": {
        "type": "Point",
        "coordinates": [
          -56.67895309998171,
          -0.0394756389482799
        ]
      }
    },
    {
      "type": "Feature",
      "properties": {
        "norad_id": 46114,
        "name": "GALAXY 30 (G-30)",
        "group": "intelsat",
        "lat": 0.02783110152377854,
        "lon": 116.3656221466409,
        "alt_km": 35794.62107151733,
        "timestamp": "2025-12-25T09:48:51.954143+00:00",
        "meta_object_name": "GALAXY 30 (G-30)",
        "meta_object_id": "2020-056C",
        "meta_epoch": "2025-12-25T04:27:55.525248",
        "meta_mean_motion": 1.00271157,
        "meta_eccentricity": 0.0002156,
        "meta_inclination": 0.0175,
        "meta_ra_of_asc_node": 337.636,
        "meta_arg_of_pericenter": 295.3076,
        "meta_mean_anomaly": 122.9843,
        "meta_ephemeris_type": 0,
        "meta_classification_type": "U",
        "meta_norad_cat_id": 46114,
        "meta_element_set_no": 999,
        "meta_rev_at_epoch": 1954,
        "meta_bstar": 0,
        "meta_mean_motion_dot": 5.8e-07,
        "meta_mean_motion_ddot": 0,
        "tle_line1": "1 46114U 20056C   25359.18605932  .00000058  00000+0  00000+0 0  9998",
        "tle_line2": "2 46114   0.0175 337.6360 0002156 295.3076 122.9843  1.00271157 19547"
      },
      "geometry": {
        "type": "Point",
        "coordinates": [
          116.3656221466409,
          0.02783110152377854
        ]
      }
    },
    {
      "type": "Feature",
      "properties": {
        "norad_id": 54026,
        "name": "GALAXY 33 (G-33)",
        "group": "intelsat",
        "lat": 0.01802241208598036,
        "lon": 108.38064938860771,
        "alt_km": 35792.28289438376,
        "timestamp": "2025-12-25T09:48:51.954154+00:00",
        "meta_object_name": "GALAXY 33 (G-33)",
        "meta_object_id": "2022-128A",
        "meta_epoch": "2025-12-24T04:31:51.326400",
        "meta_mean_motion": 1.00272122,
        "meta_eccentricity": 0.0001643,
        "meta_inclination": 0.0126,
        "meta_ra_of_asc_node": 315.9231,
        "meta_arg_of_pericenter": 309.5058,
        "meta_mean_anomaly": 122.5078,
        "meta_ephemeris_type": 0,
        "meta_classification_type": "U",
        "meta_norad_cat_id": 54026,
        "meta_element_set_no": 999,
        "meta_rev_at_epoch": 1198,
        "meta_bstar": 0,
        "meta_mean_motion_dot": 1e-06,
        "meta_mean_motion_ddot": 0,
        "tle_line1": "1 54026U 22128A   25358.18878850  .00000100  00000+0  00000+0 0  9999",
        "tle_line2": "2 54026   0.0126 315.9231 0001643 309.5058 122.5078  1.00272122 11987"
      },
      "geometry": {
        "type": "Point",
        "coordinates": [
          108.38064938860771,
          0.01802241208598036
        ]
      }
    },
    {
      "type": "Feature",
      "properties": {
        "norad_id": 54027,
        "name": "GALAXY 34 (G-34)",
        "group": "intelsat",
        "lat": 0.03978438658886358,
        "lon": 112.40813276368229,
        "alt_km": 35793.15271558715,
        "timestamp": "2025-12-25T09:48:51.954165+00:00",
        "meta_object_name": "GALAXY 34 (G-34)",
        "meta_object_id": "2022-128B",
        "meta_epoch": "2025-12-24T13:27:04.950144",
        "meta_mean_motion": 1.00269797,
        "meta_eccentricity": 0.00017445,
        "meta_inclination": 0.0224,
        "meta_ra_of_asc_node": 357.4113,
        "meta_arg_of_pericenter": 268.0239,
        "meta_mean_anomaly": 260.7121,
        "meta_ephemeris_type": 0,
        "meta_classification_type": "U",
        "meta_norad_cat_id": 54027,
        "meta_element_set_no": 999,
        "meta_rev_at_epoch": 1216,
        "meta_bstar": 0,
        "meta_mean_motion_dot": 0,
        "meta_mean_motion_ddot": 0,
        "tle_line1": "1 54027U 22128B   25358.56047396  .00000000  00000+0  00000+0 0  9994",
        "tle_line2": "2 54027   0.0224 357.4113 0001744 268.0239 260.7121  1.00269797 12168"
      },
      "geometry": {
        "type": "Point",
        "coordinates": [
          112.40813276368229,
          0.03978438658886358
        ]
      }
    },
    {
      "type": "Feature",
      "properties": {
        "norad_id": 54243,
        "name": "GALAXY 31 (G-31)",
        "group": "intelsat",
        "lat": 0.007026596749943431,
        "lon": 120.36890664268127,
        "alt_km": 35792.314671118984,
        "timestamp": "2025-12-25T09:48:51.954177+00:00",
        "meta_object_name": "GALAXY 31 (G-31)",
        "meta_object_id": "2022-153A",
        "meta_epoch": "2025-12-24T14:14:12.035040",
        "meta_mean_motion": 1.00271389,
        "meta_eccentricity": 0.00015241,
        "meta_inclination": 0.025,
        "meta_ra_of_asc_node": 248.306,
        "meta_arg_of_pericenter": 34.989,
        "meta_mean_anomaly": 262.6161,
        "meta_ephemeris_type": 0,
        "meta_classification_type": "U",
        "meta_norad_cat_id": 54243,
        "meta_element_set_no": 999,
        "meta_rev_at_epoch": 538,
        "meta_bstar": 0,
        "meta_mean_motion_dot": 3.4e-07,
        "meta_mean_motion_ddot": 0,
        "tle_line1": "1 54243U 22153A   25358.59319485  .00000034  00000+0  00000+0 0  9993",
        "tle_line2": "2 54243   0.0250 248.3060 0001524  34.9890 262.6161  1.00271389  5386"
      },
      "geometry": {
        "type": "Point",
        "coordinates": [
          120.36890664268127,
          0.007026596749943431
        ]
      }
    },
    {
      "type": "Feature",
      "properties": {
        "norad_id": 54244,
        "name": "GALAXY 32 (G-32)",
        "group": "intelsat",
        "lat": 0.021847879318686352,
        "lon": 150.37085347763784,
        "alt_km": 35794.25486407999,
        "timestamp": "2025-12-25T09:48:51.954188+00:00",
        "meta_object_name": "GALAXY 32 (G-32)",
        "meta_object_id": "2022-153B",
        "meta_epoch": "2025-12-24T09:22:58.424736",
        "meta_mean_motion": 1.00271076,
        "meta_eccentricity": 0.00019303,
        "meta_inclination": 0.0094,
        "meta_ra_of_asc_node": 17.9,
        "meta_arg_of_pericenter": 299.4695,
        "meta_mean_anomaly": 185.5393,
        "meta_ephemeris_type": 0,
        "meta_classification_type": "U",
        "meta_norad_cat_id": 54244,
        "meta_element_set_no": 999,
        "meta_rev_at_epoch": 1139,
        "meta_bstar": 0,
        "meta_mean_motion_dot": -1.53e-06,
        "meta_mean_motion_ddot": 0,
        "tle_line1": "1 54244U 22153B   25358.39095399 -.00000153  00000+0  00000+0 0  9990",
        "tle_line2": "2 54244   0.0094  17.9000 0001930 299.4695 185.5393  1.00271076 11390"
      },
      "geometry": {
        "type": "Point",
        "coordinates": [
          150.37085347763784,
          0.021847879318686352
        ]
      }
    }
  ]
}